{
    "links": {
        "self": "http://www.neowsapp.com/rest/v1/neo/3443219?api_key=iIulBulltgU6a56xZRHN4H3l9WmuAYTsLGpBGhQ2"
    },
    "id": "3443219",
    "neo_reference_id": "3443219",
    "name": "(2008 YU30)",
    "designation": "2008 YU30",
    "nasa_jpl_url": "http://ssd.jpl.nasa.gov/sbdb.cgi?sstr=3443219",
    "absolute_magnitude_h": 23.2,
    "estimated_diameter": {
        "kilometers": {
            "estimated_diameter_min": 0.0608912622,
            "estimated_diameter_max": 0.1361570015
        },
        "meters": {
            "estimated_diameter_min": 60.8912622106,
            "estimated_diameter_max": 136.1570015386
        },
        "miles": {
            "estimated_diameter_min": 0.0378360645,
            "estimated_diameter_max": 0.0846040122
        },
        "feet": {
            "estimated_diameter_min": 199.7744887109,
            "estimated_diameter_max": 446.7093369279
        }
    },
    "is_potentially_hazardous_asteroid": false,
    "close_approach_data": [
        {
            "close_approach_date": "2005-01-25",
            "close_approach_date_full": "2005-Jan-25 12:24",
            "epoch_date_close_approach": 1106655840000,
            "relative_velocity": {
                "kilometers_per_second": "18.0496668087",
                "kilometers_per_hour": "64978.8005114442",
                "miles_per_hour": "40375.2996844582"
            },
            "miss_distance": {
                "astronomical": "0.4168018073",
                "lunar": "162.1359030397",
                "kilometers": "62352662.584230451",
                "miles": "38744147.9398281838"
            },
            "orbiting_body": "Earth"
        },
        {
            "close_approach_date": "2008-12-17",
            "close_approach_date_full": "2008-Dec-17 17:55",
            "epoch_date_close_approach": 1229536500000,
            "relative_velocity": {
                "kilometers_per_second": "7.3592868048",
                "kilometers_per_hour": "26493.432497304",
                "miles_per_hour": "16461.9886536721"
            },
            "miss_distance": {
                "astronomical": "0.0587947781",
                "lunar": "22.8711686809",
                "kilometers": "8795573.570882647",
                "miles": "5465315.9868766486"
            },
            "orbiting_body": "Earth"
        },
        {
            "close_approach_date": "2012-10-23",
            "close_approach_date_full": "2012-Oct-23 09:22",
            "epoch_date_close_approach": 1350984120000,
            "relative_velocity": {
                "kilometers_per_second": "20.9054407355",
                "kilometers_per_hour": "75259.5866478576",
                "miles_per_hour": "46763.3803812757"
            },
            "miss_distance": {
                "astronomical": "0.493773801",
                "lunar": "192.078008589",
                "kilometers": "73867508.89140387",
                "miles": "45899141.653638606"
            },
            "orbiting_body": "Earth"
        }
    ],
    "orbital_data": {
        "orbit_id": "17",
        "orbit_determination_date": "2017-04-06 09:01:46",
        "first_observation_date": "2008-12-31",
        "last_observation_date": "2009-02-13",
        "data_arc_in_days": 44,
        "observations_used": 55,
        "orbit_uncertainty": "6",
        "minimum_orbit_intersection": ".0456669",
        "jupiter_tisserand_invariant": "3.212",
        "epoch_osculation": "2459000.5",
        "eccentricity": ".5856304485921278",
        "semi_major_axis": "2.479141542007896",
        "inclination": "6.016351485051262",
        "ascending_node_longitude": "92.51657398794791",
        "orbital_period": "1425.773081308822",
        "perihelion_distance": "1.027280768638433",
        "perihelion_argument": "350.507785604534",
        "aphelion_distance": "3.93100231537736",
        "perihelion_time": "2459108.636094301667",
        "mean_anomaly": "332.6962204161799",
        "mean_motion": ".2524945972956155",
        "equinox": "J2000",
        "orbit_class": {
            "orbit_class_type": "AMO",
            "orbit_class_description": "Near-Earth asteroid orbits similar to that of 1221 Amor",
            "orbit_class_range": "1.017 AU < q (perihelion) < 1.3 AU"
        }
    },
    "is_sentry_object": false
}